FENGYUN 1C DEB          
1 36682U 99025DZC 17346.42875197  .00000526  00000-0  57959-3 0  9995
2 36682  98.4638 217.8501 0248854  98.7462 264.1952 13.63041142426237
